APRIZESAT 2             
1 28366U 04025A   26165.43193230  .00000132  00000+0  54634-4 0  9992
2 28366  98.1011 331.5683 0104291 258.2655 100.6817 14.38034822151247
SAUDICOMSAT 1           
1 28369U 04025D   26165.74762258  .00000334  00000+0  87509-4 0  9992
2 28369  98.5771 175.8133 0032806  32.9654 327.3579 14.55471991163779
SAUDICOMSAT 2           
1 28370U 04025E   26165.77889022  .00000220  00000+0  68591-4 0  9990
2 28370  98.6641 177.9570 0054145 266.9445  92.5552 14.49980011159759
APRIZESAT 1             
1 28372U 04025G   26165.74460507  .00000191  00000+0  58905-4 0  9997
2 28372  98.6304 176.4037 0044959 161.1813 199.1055 14.51775815161556
NANOSAT-1               
1 28493U 04049B   26165.87065426  .00000896  00000+0  12526-3 0  9992
2 28493  98.2273 302.4750 0002921 313.0307  47.0659 14.80155596155108
SAUDICOMSAT 7           
1 31119U 07012C   26165.86056443  .00000376  00000+0  76596-4 0  9993
2 31119  98.3777 139.9446 0055129 202.5512 157.3267 14.66108300 22096
SAUDICOMSAT 6           
1 31121U 07012E   26165.83263965  .00000527  00000+0  11054-3 0  9997
2 31121  98.4098 133.3052 0071217 335.1655  24.6124 14.62555825 19845
SAUDICOMSAT 5           
1 31124U 07012H   26165.83725999  .00000518  00000+0  97618-4 0  9991
2 31124  98.3488 140.6685 0048339 131.9387 228.5953 14.68153691 23252
SAUDICOMSAT 3           
1 31125U 07012J   26165.86995009  .00000747  00000+0  12981-3 0  9999
2 31125  98.3143 141.2503 0040334  60.3375 300.1837 14.70702277 24483
SAUDICOMSAT 4           
1 31127U 07012L   26165.83167610  .00000400  00000+0  83515-4 0  9995
2 31127  98.3982 138.3541 0062045 265.7394  93.6717 14.64510196 20948
APRIZESAT 4             
1 35684U 09041D   26165.76207407  .00000555  00000+0  72889-4 0  9995
2 35684  98.1413 241.0342 0042551 331.0837  28.8019 14.83876430911005
APRIZESAT 3             
1 35686U 09041F   26165.69146749  .00001453  00000+0  12965-3 0  9996
2 35686  98.2056 318.7958 0062756  75.7848 285.0332 14.96233852916008
S-NET D                 
1 43186U 18014G   26165.62491194  .00005138  00000+0  26580-3 0  9992
2 43186  97.5371  70.4319 0009168  38.0119 322.1759 15.16651784458376
S-NET B                 
1 43187U 18014H   26165.63631422  .00004632  00000+0  24019-3 0  9997
2 43187  97.5378  70.4300 0009687  33.4028 326.7814 15.16621899458374
S-NET A                 
1 43188U 18014J   26165.62380336  .00005235  00000+0  27069-3 0  9990
2 43188  97.5387  70.6254 0009569  34.0888 326.0957 15.16659834458376
S-NET C                 
1 43189U 18014K   26165.64017720  .00004528  00000+0  23488-3 0  9992
2 43189  97.5402  70.7161 0010738  26.1004 334.0768 15.16613951456923
SALSAT                  
1 46495U 20068K   26165.52910375  .00006973  00000+0  24454-3 0  9992
2 46495  97.8843 168.4319 0008235 319.4661  40.5964 15.29765944314951
OOV-CUBE (TUBSAT-30)    
1 60240U 24128F   26165.72660227  .00001982  00000+0  16016-3 0  9997
2 60240  61.9946 234.1532 0044922 133.1554 227.3306 15.02765736105744
LPNTSAT-001 (IOD-1)     
1 68408U 26065A   26165.63865182  .00002604  00000+0  12899-3 0  9997
2 68408  97.4023  46.2025 0016951  19.4326 340.7551 15.18526423 11878
